[
    {
  "1400": { "name_bn": "নারায়ণগঞ্জ সদর", "name_en": "Narayanganj Sadar", "district": "Narayanganj", "division": "Dhaka" },
  "1600": { "name_bn": "নরসিংদী সদর", "name_en": "Narsingdi Sadar", "district": "Narsingdi", "division": "Dhaka" },
  "1500": { "name_bn": "মুন্সিগঞ্জ সদর", "name_en": "Munshiganj Sadar", "district": "Munshiganj", "division": "Dhaka" },
  "1800": { "name_bn": "মানিকগঞ্জ সদর", "name_en": "Manikganj Sadar", "district": "Manikganj", "division": "Dhaka" },
  "1900": { "name_bn": "টাঙ্গাইল সদর", "name_en": "Tangail Sadar", "district": "Tangail", "division": "Dhaka" },
  "7800": { "name_bn": "ফরিদপুর সদর", "name_en": "Faridpur Sadar", "district": "Faridpur", "division": "Dhaka" },
  "7700": { "name_bn": "রাজবাড়ী সদর", "name_en": "Rajbari Sadar", "district": "Rajbari", "division": "Dhaka" },
  "7900": { "name_bn": "মাদারীপুর সদর", "name_en": "Madaripur Sadar", "district": "Madaripur", "division": "Dhaka" },
  "8000": { "name_bn": "শরীয়তপুর সদর", "name_en": "Shariatpur Sadar", "district": "Shariatpur", "division": "Dhaka" },
  "8100": { "name_bn": "গোপালগঞ্জ সদর", "name_en": "Gopalganj Sadar", "district": "Gopalganj", "division": "Dhaka" },
  "2300": { "name_bn": "কিশোরগঞ্জ সদর", "name_en": "Kishoreganj Sadar", "district": "Kishoreganj", "division": "Dhaka" }
},
{
  "4000": { "name_bn": "চট্টগ্রাম সদর", "name_en": "Chattogram Sadar", "district": "Chattogram", "division": "Chattogram" },
  "4001": { "name_bn": "চট্টগ্রাম সদর", "name_en": "Chattogram Sadar", "district": "Chattogram", "division": "Chattogram" },
  "4002": { "name_bn": "চট্টগ্রাম সদর", "name_en": "Chattogram Sadar", "district": "Chattogram", "division": "Chattogram" },
  "4220": { "name_bn": "পাহাড়তলী", "name_en": "Pahartali", "district": "Chattogram", "division": "Chattogram" },
  "4003": { "name_bn": "কোতোয়ালি", "name_en": "Kotwali", "district": "Chattogram", "division": "Chattogram" },
  "4212": { "name_bn": "হালিশহর", "name_en": "Halishahar", "district": "Chattogram", "division": "Chattogram" },
  "4216": { "name_bn": "পাঁচলাইশ", "name_en": "Panchlaish", "district": "Chattogram", "division": "Chattogram" },
  "4100": { "name_bn": "আগ্রাবাদ", "name_en": "Agrabad", "district": "Chattogram", "division": "Chattogram" },
  "4210": { "name_bn": "চান্দগাঁও", "name_en": "Chandgaon", "district": "Chattogram", "division": "Chattogram" },
  "4700": { "name_bn": "কক্সবাজার সদর", "name_en": "Cox's Bazar Sadar", "district": "Cox's Bazar", "division": "Chattogram" },
  "4704": { "name_bn": "টেকনাফ", "name_en": "Teknaf", "district": "Cox's Bazar", "division": "Chattogram" },
  "4710": { "name_bn": "উখিয়া", "name_en": "Ukhia", "district": "Cox's Bazar", "division": "Chattogram" },
  "4720": { "name_bn": "চকরিয়া", "name_en": "Chakaria", "district": "Cox's Bazar", "division": "Chattogram" },
  "4715": { "name_bn": "রামু", "name_en": "Ramu", "district": "Cox's Bazar", "division": "Chattogram" },
  "3500": { "name_bn": "কুমিল্লা সদর", "name_en": "Cumilla Sadar", "district": "Cumilla", "division": "Chattogram" },
  "3560": { "name_bn": "লাকসাম", "name_en": "Laksam", "district": "Cumilla", "division": "Chattogram" },
  "3510": { "name_bn": "দেবিদ্বার", "name_en": "Debidwar", "district": "Cumilla", "division": "Chattogram" },
  "3520": { "name_bn": "চান্দিনা", "name_en": "Chandina", "district": "Cumilla", "division": "Chattogram" },
  "3530": { "name_bn": "মুরাদনগর", "name_en": "Muradnagar", "district": "Cumilla", "division": "Chattogram" },
  "3400": { "name_bn": "ব্রাহ্মণবাড়িয়া সদর", "name_en": "Brahmanbaria Sadar", "district": "Brahmanbaria", "division": "Chattogram" },
  "3430": { "name_bn": "নবীনগর", "name_en": "Nabinagar", "district": "Brahmanbaria", "division": "Chattogram" },
  "3440": { "name_bn": "আশুগঞ্জ", "name_en": "Ashuganj", "district": "Brahmanbaria", "division": "Chattogram" },
  "3450": { "name_bn": "সারাইল", "name_en": "Sarail", "district": "Brahmanbaria", "division": "Chattogram" },
  "3600": { "name_bn": "চাঁদপুর সদর", "name_en": "Chandpur Sadar", "district": "Chandpur", "division": "Chattogram" },
  "3610": { "name_bn": "হাইমচর", "name_en": "Haimchar", "district": "Chandpur", "division": "Chattogram" },
  "3620": { "name_bn": "মাতলব উত্তর", "name_en": "Matlab Uttar", "district": "Chandpur", "division": "Chattogram" },
  "3630": { "name_bn": "শাহরাস্তি", "name_en": "Shahrasti", "district": "Chandpur", "division": "Chattogram" },
  "3900": { "name_bn": "ফেনী সদর", "name_en": "Feni Sadar", "district": "Feni", "division": "Chattogram" },
  "3910": { "name_bn": "পরশুরাম", "name_en": "Parshuram", "district": "Feni", "division": "Chattogram" },
  "3920": { "name_bn": "দাগনভূইয়া", "name_en": "Daganbhuiyan", "district": "Feni", "division": "Chattogram" },
  "3930": { "name_bn": "ছাগলনাইয়া", "name_en": "Chhagalnaiya", "district": "Feni", "division": "Chattogram" },
  "4400": { "name_bn": "খাগড়াছড়ি সদর", "name_en": "Khagrachari Sadar", "district": "Khagrachari", "division": "Chattogram" },
  "4410": { "name_bn": "রামগড়", "name_en": "Ramgarh", "district": "Khagrachari", "division": "Chattogram" },
  "4420": { "name_bn": "মাহালছড়ি", "name_en": "Mahalchari", "district": "Khagrachari", "division": "Chattogram" },
  "4430": { "name_bn": "দিঘিনালা", "name_en": "Dighinala", "district": "Khagrachari", "division": "Chattogram" },
  "3700": { "name_bn": "লক্ষ্মীপুর সদর", "name_en": "Lakshmipur Sadar", "district": "Lakshmipur", "division": "Chattogram" },
  "3710": { "name_bn": "রায়পুর", "name_en": "Raipur", "district": "Lakshmipur", "division": "Chattogram" },
  "3720": { "name_bn": "রামগঞ্জ", "name_en": "Ramganj", "district": "Lakshmipur", "division": "Chattogram" },
  "3730": { "name_bn": "কমলনগর", "name_en": "Kamalnagar", "district": "Lakshmipur", "division": "Chattogram" },
  "3800": { "name_bn": "নোয়াখালী সদর", "name_en": "Noakhali Sadar", "district": "Noakhali", "division": "Chattogram" },
  "3810": { "name_bn": "বেগমগঞ্জ", "name_en": "Begumganj", "district": "Noakhali", "division": "Chattogram" },
  "3820": { "name_bn": "সেনবাগ", "name_en": "Senbagh", "district": "Noakhali", "division": "Chattogram" },
  "3830": { "name_bn": "চাটখিল", "name_en": "Chatkhil", "district": "Noakhali", "division": "Chattogram" },
  "4500": { "name_bn": "রাঙামাটি সদর", "name_en": "Rangamati Sadar", "district": "Rangamati", "division": "Chattogram" },
  "4510": { "name_bn": "বাঘাইছড়ি", "name_en": "Baghaichhari", "district": "Rangamati", "division": "Chattogram" },
  "4520": { "name_bn": "কাপ্তাই", "name_en": "Kaptai", "district": "Rangamati", "division": "Chattogram" },
  "4530": { "name_bn": "জুরাছড়ি", "name_en": "Juraichhari", "district": "Rangamati", "division": "Chattogram" },
  "4600": { "name_bn": "বান্দরবান সদর", "name_en": "Bandarban Sadar", "district": "Bandarban", "division": "Chattogram" },
  "4610": { "name_bn": "থানচি", "name_en": "Thanchi", "district": "Bandarban", "division": "Chattogram" },
  "4620": { "name_bn": "লামা", "name_en": "Lama", "district": "Bandarban", "division": "Chattogram" },
  "4630": { "name_bn": "রোয়াংছড়ি", "name_en": "Rowangchhari", "district": "Bandarban", "division": "Chattogram" }
}


]